CCSDS_OMM_VERS = 2.0
CREATION_DATE  = 
ORIGINATOR     = 

OBJECT_NAME    = STARLINK-36239
OBJECT_ID      = 2025-304E
CENTER_NAME    = EARTH
REF_FRAME      = TEME
TIME_SYSTEM    = UTC
MEAN_ELEMENT_THEORY = SGP/SGP4

EPOCH          = 2026-01-01T09:57:52.193952
MEAN_MOTION    = 15.68430778
ECCENTRICITY   = .00040021
INCLINATION    = 69.9990
RA_OF_ASC_NODE = 351.8574
ARG_OF_PERICENTER = 296.4481
MEAN_ANOMALY   = 63.6303

EPHEMERIS_TYPE = 0
CLASSIFICATION_TYPE = U
NORAD_CAT_ID   = 67196
ELEMENT_SET_NO = 999
REV_AT_EPOCH   = 361
BSTAR          = -.73150237E-2
MEAN_MOTION_DOT = -.756602E-2
MEAN_MOTION_DDOT = 0

CCSDS_OMM_VERS = 2.0
CREATION_DATE  = 
ORIGINATOR     = 

OBJECT_NAME    = STARLINK-36283
OBJECT_ID      = 2025-304F
CENTER_NAME    = EARTH
REF_FRAME      = TEME
TIME_SYSTEM    = UTC
MEAN_ELEMENT_THEORY = SGP/SGP4

EPOCH          = 2026-01-01T08:25:02.056800
MEAN_MOTION    = 15.68943041
ECCENTRICITY   = .00034661
INCLINATION    = 69.9979
RA_OF_ASC_NODE = 352.0338
ARG_OF_PERICENTER = 301.8282
MEAN_ANOMALY   = 58.2576

EPHEMERIS_TYPE = 0
CLASSIFICATION_TYPE = U
NORAD_CAT_ID   = 67197
ELEMENT_SET_NO = 999
REV_AT_EPOCH   = 360
BSTAR          = -.3143873E-2
MEAN_MOTION_DOT = -.348577E-2
MEAN_MOTION_DDOT = 0

CCSDS_OMM_VERS = 2.0
CREATION_DATE  = 
ORIGINATOR     = 

OBJECT_NAME    = STARLINK-36267
OBJECT_ID      = 2025-304G
CENTER_NAME    = EARTH
REF_FRAME      = TEME
TIME_SYSTEM    = UTC
MEAN_ELEMENT_THEORY = SGP/SGP4

EPOCH          = 2026-01-01T08:25:31.274688
MEAN_MOTION    = 15.68968777
ECCENTRICITY   = .00029471
INCLINATION    = 69.9990
RA_OF_ASC_NODE = 352.0354
ARG_OF_PERICENTER = 298.4863
MEAN_ANOMALY   = 61.6035

EPHEMERIS_TYPE = 0
CLASSIFICATION_TYPE = U
NORAD_CAT_ID   = 67198
ELEMENT_SET_NO = 999
REV_AT_EPOCH   = 357
BSTAR          = -.27032528E-2
MEAN_MOTION_DOT = -.301687E-2
MEAN_MOTION_DDOT = 0

CCSDS_OMM_VERS = 2.0
CREATION_DATE  = 
ORIGINATOR     = 

OBJECT_NAME    = STARLINK-36268
OBJECT_ID      = 2025-304H
CENTER_NAME    = EARTH
REF_FRAME      = TEME
TIME_SYSTEM    = UTC
MEAN_ELEMENT_THEORY = SGP/SGP4

EPOCH          = 2026-01-01T08:24:32.664384
MEAN_MOTION    = 15.68672166
ECCENTRICITY   = .00043876
INCLINATION    = 69.9988
RA_OF_ASC_NODE = 352.0323
ARG_OF_PERICENTER = 281.1109
MEAN_ANOMALY   = 78.9593

EPHEMERIS_TYPE = 0
CLASSIFICATION_TYPE = U
NORAD_CAT_ID   = 67199
ELEMENT_SET_NO = 999
REV_AT_EPOCH   = 360
BSTAR          = -.84552533E-2
MEAN_MOTION_DOT = -.871254E-2
MEAN_MOTION_DDOT = 0

CCSDS_OMM_VERS = 2.0
CREATION_DATE  = 
ORIGINATOR     = 

OBJECT_NAME    = STARLINK-36270
OBJECT_ID      = 2025-304J
CENTER_NAME    = EARTH
REF_FRAME      = TEME
TIME_SYSTEM    = UTC
MEAN_ELEMENT_THEORY = SGP/SGP4

EPOCH          = 2026-01-01T08:24:02.688768
MEAN_MOTION    = 15.68875777
ECCENTRICITY   = .00048003
INCLINATION    = 69.9990
RA_OF_ASC_NODE = 352.0310
ARG_OF_PERICENTER = 255.2338
MEAN_ANOMALY   = 104.8325

EPHEMERIS_TYPE = 0
CLASSIFICATION_TYPE = U
NORAD_CAT_ID   = 67200
ELEMENT_SET_NO = 999
REV_AT_EPOCH   = 360
BSTAR          = -.47621914E-2
MEAN_MOTION_DOT = -.516417E-2
MEAN_MOTION_DDOT = 0

CCSDS_OMM_VERS = 2.0
CREATION_DATE  = 
ORIGINATOR     = 

OBJECT_NAME    = STARLINK-36262
OBJECT_ID      = 2025-304K
CENTER_NAME    = EARTH
REF_FRAME      = TEME
TIME_SYSTEM    = UTC
MEAN_ELEMENT_THEORY = SGP/SGP4

EPOCH          = 2026-01-01T08:23:33.762048
MEAN_MOTION    = 15.68991184
ECCENTRICITY   = .00025634
INCLINATION    = 69.9990
RA_OF_ASC_NODE = 352.0302
ARG_OF_PERICENTER = 291.6504
MEAN_ANOMALY   = 68.4418

EPHEMERIS_TYPE = 0
CLASSIFICATION_TYPE = U
NORAD_CAT_ID   = 67201
ELEMENT_SET_NO = 999
REV_AT_EPOCH   = 360
BSTAR          = -.26170073E-2
MEAN_MOTION_DOT = -.292622E-2
MEAN_MOTION_DDOT = 0

CCSDS_OMM_VERS = 2.0
CREATION_DATE  = 
ORIGINATOR     = 

OBJECT_NAME    = STARLINK-36263
OBJECT_ID      = 2025-304L
CENTER_NAME    = EARTH
REF_FRAME      = TEME
TIME_SYSTEM    = UTC
MEAN_ELEMENT_THEORY = SGP/SGP4

EPOCH          = 2026-01-01T08:23:03.757920
MEAN_MOTION    = 15.68736216
ECCENTRICITY   = .00037936
INCLINATION    = 70.0000
RA_OF_ASC_NODE = 352.0293
ARG_OF_PERICENTER = 243.5279
MEAN_ANOMALY   = 116.5527

EPHEMERIS_TYPE = 0
CLASSIFICATION_TYPE = U
NORAD_CAT_ID   = 67202
ELEMENT_SET_NO = 999
REV_AT_EPOCH   = 360
BSTAR          = -.83719205E-2
MEAN_MOTION_DOT = -.865307E-2
MEAN_MOTION_DDOT = 0

CCSDS_OMM_VERS = 2.0
CREATION_DATE  = 
ORIGINATOR     = 

OBJECT_NAME    = STARLINK-36224
OBJECT_ID      = 2025-304M
CENTER_NAME    = EARTH
REF_FRAME      = TEME
TIME_SYSTEM    = UTC
MEAN_ELEMENT_THEORY = SGP/SGP4

EPOCH          = 2026-01-01T08:22:34.820832
MEAN_MOTION    = 15.68696183
ECCENTRICITY   = .00036225
INCLINATION    = 69.9989
RA_OF_ASC_NODE = 352.0274
ARG_OF_PERICENTER = 249.9238
MEAN_ANOMALY   = 110.1567

EPHEMERIS_TYPE = 0
CLASSIFICATION_TYPE = U
NORAD_CAT_ID   = 67203
ELEMENT_SET_NO = 999
REV_AT_EPOCH   = 360
BSTAR          = -.84835011E-2
MEAN_MOTION_DOT = -.874346E-2
MEAN_MOTION_DDOT = 0

CCSDS_OMM_VERS = 2.0
CREATION_DATE  = 
ORIGINATOR     = 

OBJECT_NAME    = STARLINK-36185
OBJECT_ID      = 2025-304N
CENTER_NAME    = EARTH
REF_FRAME      = TEME
TIME_SYSTEM    = UTC
MEAN_ELEMENT_THEORY = SGP/SGP4

EPOCH          = 2026-01-01T08:22:05.201184
MEAN_MOTION    = 15.68734587
ECCENTRICITY   = .00040125
INCLINATION    = 69.9987
RA_OF_ASC_NODE = 352.0257
ARG_OF_PERICENTER = 236.2748
MEAN_ANOMALY   = 123.8066

EPHEMERIS_TYPE = 0
CLASSIFICATION_TYPE = U
NORAD_CAT_ID   = 67204
ELEMENT_SET_NO = 999
REV_AT_EPOCH   = 360
BSTAR          = -.78179711E-2
MEAN_MOTION_DOT = -.813232E-2
MEAN_MOTION_DDOT = 0

CCSDS_OMM_VERS = 2.0
CREATION_DATE  = 
ORIGINATOR     = 

OBJECT_NAME    = STARLINK-36197
OBJECT_ID      = 2025-304P
CENTER_NAME    = EARTH
REF_FRAME      = TEME
TIME_SYSTEM    = UTC
MEAN_ELEMENT_THEORY = SGP/SGP4

EPOCH          = 2026-01-01T08:21:35.803584
MEAN_MOTION    = 15.68748313
ECCENTRICITY   = .00036964
INCLINATION    = 70.0003
RA_OF_ASC_NODE = 352.0251
ARG_OF_PERICENTER = 239.4745
MEAN_ANOMALY   = 120.6085

EPHEMERIS_TYPE = 0
CLASSIFICATION_TYPE = U
NORAD_CAT_ID   = 67205
ELEMENT_SET_NO = 999
REV_AT_EPOCH   = 357
BSTAR          = -.80273934E-2
MEAN_MOTION_DOT = -.83332E-2
MEAN_MOTION_DDOT = 0

CCSDS_OMM_VERS = 2.0
CREATION_DATE  = 
ORIGINATOR     = 

OBJECT_NAME    = STARLINK-36056
OBJECT_ID      = 2025-304Q
CENTER_NAME    = EARTH
REF_FRAME      = TEME
TIME_SYSTEM    = UTC
MEAN_ELEMENT_THEORY = SGP/SGP4

EPOCH          = 2026-01-01T08:21:06.485472
MEAN_MOTION    = 15.68705461
ECCENTRICITY   = .00038177
INCLINATION    = 69.9992
RA_OF_ASC_NODE = 352.0229
ARG_OF_PERICENTER = 233.1224
MEAN_ANOMALY   = 126.9622

EPHEMERIS_TYPE = 0
CLASSIFICATION_TYPE = U
NORAD_CAT_ID   = 67206
ELEMENT_SET_NO = 999
REV_AT_EPOCH   = 357
BSTAR          = -.85713162E-2
MEAN_MOTION_DOT = -.882896E-2
MEAN_MOTION_DDOT = 0

CCSDS_OMM_VERS = 2.0
CREATION_DATE  = 
ORIGINATOR     = 

OBJECT_NAME    = STARLINK-36225
OBJECT_ID      = 2025-304R
CENTER_NAME    = EARTH
REF_FRAME      = TEME
TIME_SYSTEM    = UTC
MEAN_ELEMENT_THEORY = SGP/SGP4

EPOCH          = 2026-01-01T08:20:37.424832
MEAN_MOTION    = 15.68706718
ECCENTRICITY   = .00038667
INCLINATION    = 69.9992
RA_OF_ASC_NODE = 352.0210
ARG_OF_PERICENTER = 260.7719
MEAN_ANOMALY   = 99.3039

EPHEMERIS_TYPE = 0
CLASSIFICATION_TYPE = U
NORAD_CAT_ID   = 67207
ELEMENT_SET_NO = 999
REV_AT_EPOCH   = 360
BSTAR          = -.84213606E-2
MEAN_MOTION_DOT = -.868998E-2
MEAN_MOTION_DDOT = 0

