STARLINK-36239          
1 67196U 25304E   26001.41518743 -.00756602  00000+0 -73150-2 0  9990
2 67196  69.9990 351.8574 0004002 296.4481  63.6303 15.68430778  3616
STARLINK-36283          
1 67197U 25304F   26001.35071825 -.00348577  00000+0 -31439-2 0  9991
2 67197  69.9979 352.0338 0003466 301.8282  58.2576 15.68943041  3601
STARLINK-36267          
1 67198U 25304G   26001.35105642 -.00301687  00000+0 -27033-2 0  9993
2 67198  69.9990 352.0354 0002947 298.4863  61.6035 15.68968777  3579
STARLINK-36268          
1 67199U 25304H   26001.35037806 -.00871254  00000+0 -84553-2 0  9992
2 67199  69.9988 352.0323 0004387 281.1109  78.9593 15.68672166  3603
STARLINK-36270          
1 67200U 25304J   26001.35003112 -.00516417  00000+0 -47622-2 0  9991
2 67200  69.9990 352.0310 0004800 255.2338 104.8325 15.68875777  3606
STARLINK-36262          
1 67201U 25304K   26001.34969632 -.00292622  00000+0 -26170-2 0  9993
2 67201  69.9990 352.0302 0002563 291.6504  68.4418 15.68991184  3600
STARLINK-36263          
1 67202U 25304L   26001.34934905 -.00865307  00000+0 -83719-2 0  9997
2 67202  70.0000 352.0293 0003793 243.5279 116.5527 15.68736216  3605
STARLINK-36224          
1 67203U 25304M   26001.34901413 -.00874346  00000+0 -84835-2 0  9999
2 67203  69.9989 352.0274 0003622 249.9238 110.1567 15.68696183  3606
STARLINK-36185          
1 67204U 25304N   26001.34867131 -.00813232  00000+0 -78180-2 0  9991
2 67204  69.9987 352.0257 0004012 236.2748 123.8066 15.68734587  3601
STARLINK-36197          
1 67205U 25304P   26001.34833106 -.00833320  00000+0 -80274-2 0  9994
2 67205  70.0003 352.0251 0003696 239.4745 120.6085 15.68748313  3571
STARLINK-36056          
1 67206U 25304Q   26001.34799173 -.00882896  00000+0 -85713-2 0  9995
2 67206  69.9992 352.0229 0003817 233.1224 126.9622 15.68705461  3572
STARLINK-36225          
1 67207U 25304R   26001.34765538 -.00868998  00000+0 -84214-2 0  9996
2 67207  69.9992 352.0210 0003866 260.7719  99.3039 15.68706718  3607
